STARLINK-31579          
1 59267U 24050P   26068.59996892 -.00000505  00000+0 -49165-5 0  9990
2 59267  53.1605 181.4925 0001119  76.2634 283.8492 15.30195118110531
TEVEL2-4                
1 63213U 25052D   26068.69417973  .00020990  00000+0  70363-3 0  9998
2 63213  97.4009 325.1237 0004733  95.3468 264.8313 15.30925813 54879
